[{"OBJECT_NAME":"STARLINK-32402","OBJECT_ID":"2024-196B","EPOCH":"2026-03-09T11:20:43.157472","MEAN_MOTION":15.30191635,"ECCENTRICITY":0.00011524,"INCLINATION":53.1607,"RA_OF_ASC_NODE":102.3284,"ARG_OF_PERICENTER":101.0141,"MEAN_ANOMALY":259.0989,"EPHEMERIS_TYPE":0,"CLASSIFICATION_TYPE":"U","NORAD_CAT_ID":61708,"ELEMENT_SET_NO":999,"REV_AT_EPOCH":7712,"BSTAR":3.1096974e-5,"MEAN_MOTION_DOT":5.62e-6,"MEAN_MOTION_DDOT":0},{"OBJECT_NAME":"BREEZE-KM R\/B","OBJECT_ID":"2016-011B","EPOCH":"2026-03-09T13:46:31.765728","MEAN_MOTION":15.28220455,"ECCENTRICITY":0.0143188,"INCLINATION":98.6722,"RA_OF_ASC_NODE":284.67,"ARG_OF_PERICENTER":63.2473,"MEAN_ANOMALY":298.3333,"EPHEMERIS_TYPE":0,"CLASSIFICATION_TYPE":"U","NORAD_CAT_ID":41336,"ELEMENT_SET_NO":999,"REV_AT_EPOCH":55224,"BSTAR":0.00023628,"MEAN_MOTION_DOT":8.734e-5,"MEAN_MOTION_DDOT":0}]
